0 CZ-4 DEB
1 20852U 90081Q   13281.35859123  .00000307  00000-0  17584-3 0  6722
2 20852 098.7489 316.9545 0017545 289.6380 070.2901 14.16481020188132
0 CZ-4 DEB
1 20852U 90081Q   13282.70069556  .00000259  00000-0  15170-3 0  6731
2 20852 098.7488 318.2738 0017556 285.5520 074.3716 14.16483155188324
0 CZ-4 DEB
1 20852U 90081Q   13284.11343470  .00000365  00000-0  20485-3 0  6742
2 20852 098.7486 319.6626 0017600 281.2681 078.6515 14.16484660188522
0 CZ-4 DEB
1 20852U 90081Q   13286.51508786  .00000417  00000-0  23101-3 0  6769
2 20852 098.7481 322.0236 0017638 273.9183 085.9975 14.16486080188864
0 CZ-4 DEB
1 20852U 90081Q   13287.71591414  .00000491  00000-0  26837-3 0  6774
2 20852 098.7477 323.2040 0017692 270.2617 089.6530 14.16487620189036
0 CZ-4 DEB
1 20852U 90081Q   13289.12865001  .00000429  00000-0  23706-3 0  6781
2 20852 098.7474 324.5926 0017746 265.9773 093.9373 14.16490058189238
0 CZ-4 DEB
1 20852U 90081Q   13290.68265695  .00000416  00000-0  23050-3 0  6796
2 20852 098.7473 326.1199 0017817 261.2623 098.6533 14.16491775189450
0 CZ-4 DEB
1 20852U 90081Q   13292.16602503  .00000476  00000-0  26053-3 0  6808
2 20852 098.7472 327.5777 0017835 256.7273 103.1912 14.16492410189669
0 CZ-4 DEB
1 20852U 90081Q   13293.72002890  .00000504  00000-0  27476-3 0  6817
2 20852 098.7473 329.1049 0017932 252.0736 107.8483 14.16493579189886
0 CZ-4 DEB
1 20852U 90081Q   13295.13275948  .00000439  00000-0  24223-3 0  6825
2 20852 098.7473 330.4932 0018047 247.9098 112.0160 14.16495374190083
